CCSDS_OMM_VERS = 2.0
CREATION_DATE  = 
ORIGINATOR     = 

OBJECT_NAME    = SHIJIAN-16 (SJ-16)
OBJECT_ID      = 2013-057A
CENTER_NAME    = EARTH
REF_FRAME      = TEME
TIME_SYSTEM    = UTC
MEAN_ELEMENT_THEORY = SGP/SGP4

EPOCH          = 2025-11-21T00:14:19.756896
MEAN_MOTION    = 14.91891632
ECCENTRICITY   = .00167583
INCLINATION    = 74.9746
RA_OF_ASC_NODE = 30.7665
ARG_OF_PERICENTER = 11.8821
MEAN_ANOMALY   = 348.2758

EPHEMERIS_TYPE = 0
CLASSIFICATION_TYPE = U
NORAD_CAT_ID   = 39358
ELEMENT_SET_NO = 999
REV_AT_EPOCH   = 65529
BSTAR          = .19942722E-3
MEAN_MOTION_DOT = .1993E-4
MEAN_MOTION_DDOT = 0

CCSDS_OMM_VERS = 2.0
CREATION_DATE  = 
ORIGINATOR     = 

OBJECT_NAME    = SL-4 R/B
OBJECT_ID      = 2014-021B
CENTER_NAME    = EARTH
REF_FRAME      = TEME
TIME_SYSTEM    = UTC
MEAN_ELEMENT_THEORY = SGP/SGP4

EPOCH          = 2025-11-20T13:31:47.427168
MEAN_MOTION    = 15.35886041
ECCENTRICITY   = .01035949
INCLINATION    = 51.6052
RA_OF_ASC_NODE = 148.3032
ARG_OF_PERICENTER = 66.4633
MEAN_ANOMALY   = 294.7193

EPHEMERIS_TYPE = 0
CLASSIFICATION_TYPE = U
NORAD_CAT_ID   = 39679
ELEMENT_SET_NO = 999
REV_AT_EPOCH   = 63948
BSTAR          = .29040398E-3
MEAN_MOTION_DOT = .11885E-3
MEAN_MOTION_DDOT = 0

CCSDS_OMM_VERS = 2.0
CREATION_DATE  = 
ORIGINATOR     = 

OBJECT_NAME    = ALOS-2
OBJECT_ID      = 2014-029A
CENTER_NAME    = EARTH
REF_FRAME      = TEME
TIME_SYSTEM    = UTC
MEAN_ELEMENT_THEORY = SGP/SGP4

EPOCH          = 2025-11-20T19:55:11.720928
MEAN_MOTION    = 14.79470023
ECCENTRICITY   = .00013983
INCLINATION    = 97.9235
RA_OF_ASC_NODE = 59.9876
ARG_OF_PERICENTER = 98.3752
MEAN_ANOMALY   = 261.7618

EPHEMERIS_TYPE = 0
CLASSIFICATION_TYPE = U
NORAD_CAT_ID   = 39766
ELEMENT_SET_NO = 999
REV_AT_EPOCH   = 62077
BSTAR          = -.75402657E-4
MEAN_MOTION_DOT = -.614E-5
MEAN_MOTION_DDOT = 0

CCSDS_OMM_VERS = 2.0
CREATION_DATE  = 
ORIGINATOR     = 

OBJECT_NAME    = YAOGAN-29
OBJECT_ID      = 2015-069A
CENTER_NAME    = EARTH
REF_FRAME      = TEME
TIME_SYSTEM    = UTC
MEAN_ELEMENT_THEORY = SGP/SGP4

EPOCH          = 2025-11-21T00:34:49.820736
MEAN_MOTION    = 14.82847773
ECCENTRICITY   = .00016659
INCLINATION    = 98.0240
RA_OF_ASC_NODE = 348.1241
ARG_OF_PERICENTER = 33.7564
MEAN_ANOMALY   = 326.3755

EPHEMERIS_TYPE = 0
CLASSIFICATION_TYPE = U
NORAD_CAT_ID   = 41038
ELEMENT_SET_NO = 999
REV_AT_EPOCH   = 53977
BSTAR          = .6680787E-4
MEAN_MOTION_DOT = .487E-5
MEAN_MOTION_DDOT = 0

CCSDS_OMM_VERS = 2.0
CREATION_DATE  = 
ORIGINATOR     = 

OBJECT_NAME    = ASTRO-H (HITOMI)
OBJECT_ID      = 2016-012A
CENTER_NAME    = EARTH
REF_FRAME      = TEME
TIME_SYSTEM    = UTC
MEAN_ELEMENT_THEORY = SGP/SGP4

EPOCH          = 2025-11-20T08:04:09.384672
MEAN_MOTION    = 15.09155276
ECCENTRICITY   = .00097694
INCLINATION    = 31.0014
RA_OF_ASC_NODE = 341.7774
ARG_OF_PERICENTER = 311.3935
MEAN_ANOMALY   = 48.5862

EPHEMERIS_TYPE = 0
CLASSIFICATION_TYPE = U
NORAD_CAT_ID   = 41337
ELEMENT_SET_NO = 999
REV_AT_EPOCH   = 53569
BSTAR          = .18464965E-3
MEAN_MOTION_DOT = .31E-4
MEAN_MOTION_DDOT = 0

CCSDS_OMM_VERS = 2.0
CREATION_DATE  = 
ORIGINATOR     = 

OBJECT_NAME    = HXMT (HUIYAN)
OBJECT_ID      = 2017-034A
CENTER_NAME    = EARTH
REF_FRAME      = TEME
TIME_SYSTEM    = UTC
MEAN_ELEMENT_THEORY = SGP/SGP4

EPOCH          = 2025-11-20T23:36:40.073760
MEAN_MOTION    = 15.15946882
ECCENTRICITY   = .00341694
INCLINATION    = 43.0151
RA_OF_ASC_NODE = 260.3313
ARG_OF_PERICENTER = 267.7293
MEAN_ANOMALY   = 91.9642

EPHEMERIS_TYPE = 0
CLASSIFICATION_TYPE = U
NORAD_CAT_ID   = 42758
ELEMENT_SET_NO = 999
REV_AT_EPOCH   = 46603
BSTAR          = .33530822E-3
MEAN_MOTION_DOT = .6409E-4
MEAN_MOTION_DDOT = 0

CCSDS_OMM_VERS = 2.0
CREATION_DATE  = 
ORIGINATOR     = 

OBJECT_NAME    = CZ-2C R/B
OBJECT_ID      = 2018-054D
CENTER_NAME    = EARTH
REF_FRAME      = TEME
TIME_SYSTEM    = UTC
MEAN_ELEMENT_THEORY = SGP/SGP4

EPOCH          = 2025-11-20T10:28:59.998656
MEAN_MOTION    = 15.69183023
ECCENTRICITY   = .00226743
INCLINATION    = 35.1361
RA_OF_ASC_NODE = 331.5586
ARG_OF_PERICENTER = 281.2924
MEAN_ANOMALY   = 78.5259

EPHEMERIS_TYPE = 0
CLASSIFICATION_TYPE = U
NORAD_CAT_ID   = 43521
ELEMENT_SET_NO = 999
REV_AT_EPOCH   = 41154
BSTAR          = .75873979E-3
MEAN_MOTION_DOT = .93783E-3
MEAN_MOTION_DDOT = 0

CCSDS_OMM_VERS = 2.0
CREATION_DATE  = 
ORIGINATOR     = 

OBJECT_NAME    = SAOCOM 1A
OBJECT_ID      = 2018-076A
CENTER_NAME    = EARTH
REF_FRAME      = TEME
TIME_SYSTEM    = UTC
MEAN_ELEMENT_THEORY = SGP/SGP4

EPOCH          = 2025-11-21T00:01:25.512672
MEAN_MOTION    = 14.82142453
ECCENTRICITY   = .00015657
INCLINATION    = 97.8852
RA_OF_ASC_NODE = 149.7390
ARG_OF_PERICENTER = 91.7556
MEAN_ANOMALY   = 268.3836

EPHEMERIS_TYPE = 0
CLASSIFICATION_TYPE = U
NORAD_CAT_ID   = 43641
ELEMENT_SET_NO = 999
REV_AT_EPOCH   = 38526
BSTAR          = .73728822E-4
MEAN_MOTION_DOT = .535E-5
MEAN_MOTION_DDOT = 0

CCSDS_OMM_VERS = 2.0
CREATION_DATE  = 
ORIGINATOR     = 

OBJECT_NAME    = H-2A R/B
OBJECT_ID      = 2018-084L
CENTER_NAME    = EARTH
REF_FRAME      = TEME
TIME_SYSTEM    = UTC
MEAN_ELEMENT_THEORY = SGP/SGP4

EPOCH          = 2025-11-20T11:45:21.671424
MEAN_MOTION    = 15.36313209
ECCENTRICITY   = .0028919
INCLINATION    = 98.8786
RA_OF_ASC_NODE = 153.9772
ARG_OF_PERICENTER = 42.1074
MEAN_ANOMALY   = 318.2380

EPHEMERIS_TYPE = 0
CLASSIFICATION_TYPE = U
NORAD_CAT_ID   = 43682
ELEMENT_SET_NO = 999
REV_AT_EPOCH   = 38898
BSTAR          = .47764742E-3
MEAN_MOTION_DOT = .17058E-3
MEAN_MOTION_DDOT = 0

CCSDS_OMM_VERS = 2.0
CREATION_DATE  = 
ORIGINATOR     = 

OBJECT_NAME    = SAOCOM 1B
OBJECT_ID      = 2020-059A
CENTER_NAME    = EARTH
REF_FRAME      = TEME
TIME_SYSTEM    = UTC
MEAN_ELEMENT_THEORY = SGP/SGP4

EPOCH          = 2025-11-20T23:09:15.695136
MEAN_MOTION    = 14.82151055
ECCENTRICITY   = .00013285
INCLINATION    = 97.8847
RA_OF_ASC_NODE = 148.8049
ARG_OF_PERICENTER = 89.9111
MEAN_ANOMALY   = 270.2254

EPHEMERIS_TYPE = 0
CLASSIFICATION_TYPE = U
NORAD_CAT_ID   = 46265
ELEMENT_SET_NO = 999
REV_AT_EPOCH   = 28264
BSTAR          = .74249199E-4
MEAN_MOTION_DOT = .539E-5
MEAN_MOTION_DDOT = 0

CCSDS_OMM_VERS = 2.0
CREATION_DATE  = 
ORIGINATOR     = 

OBJECT_NAME    = CSS (TIANHE)
OBJECT_ID      = 2021-035A
CENTER_NAME    = EARTH
REF_FRAME      = TEME
TIME_SYSTEM    = UTC
MEAN_ELEMENT_THEORY = SGP/SGP4

EPOCH          = 2025-11-20T20:47:07.031040
MEAN_MOTION    = 15.59361906
ECCENTRICITY   = .00075396
INCLINATION    = 41.4654
RA_OF_ASC_NODE = 149.4104
ARG_OF_PERICENTER = 206.0978
MEAN_ANOMALY   = 153.9481

EPHEMERIS_TYPE = 0
CLASSIFICATION_TYPE = U
NORAD_CAT_ID   = 48274
ELEMENT_SET_NO = 999
REV_AT_EPOCH   = 26061
BSTAR          = .24199323E-3
MEAN_MOTION_DOT = .19378E-3
MEAN_MOTION_DDOT = 0

CCSDS_OMM_VERS = 2.0
CREATION_DATE  = 
ORIGINATOR     = 

OBJECT_NAME    = COSMOS 2550
OBJECT_ID      = 2021-056A
CENTER_NAME    = EARTH
REF_FRAME      = TEME
TIME_SYSTEM    = UTC
MEAN_ELEMENT_THEORY = SGP/SGP4

EPOCH          = 2025-11-21T00:17:06.194400
MEAN_MOTION    = 15.33847691
ECCENTRICITY   = .00079149
INCLINATION    = 67.1438
RA_OF_ASC_NODE = 9.6564
ARG_OF_PERICENTER = 267.3833
MEAN_ANOMALY   = 92.6415

EPHEMERIS_TYPE = 0
CLASSIFICATION_TYPE = U
NORAD_CAT_ID   = 48865
ELEMENT_SET_NO = 999
REV_AT_EPOCH   = 24679
BSTAR          = .6570019E-5
MEAN_MOTION_DOT = .25E-6
MEAN_MOTION_DDOT = 0

