SHIJIAN-16 (SJ-16)      
1 39358U 13057A   25325.00995089  .00001993  00000+0  19943-3 0  9991
2 39358  74.9746  30.7665 0016758  11.8821 348.2758 14.91891632655290
SL-4 R/B                
1 39679U 14021B   25324.56374337  .00011885  00000+0  29040-3 0  9996
2 39679  51.6052 148.3032 0103594  66.4633 294.7193 15.35886041639482
ALOS-2                  
1 39766U 14029A   25324.82999677 -.00000614  00000+0 -75403-4 0  9995
2 39766  97.9235  59.9876 0001398  98.3752 261.7618 14.79470023620777
YAOGAN-29               
1 41038U 15069A   25325.02418774  .00000487  00000+0  66808-4 0  9997
2 41038  98.0240 348.1241 0001665  33.7564 326.3755 14.82847773539773
ASTRO-H (HITOMI)        
1 41337U 16012A   25324.33621973  .00003100  00000+0  18465-3 0  9998
2 41337  31.0014 341.7774 0009769 311.3935  48.5862 15.09155276535690
HXMT (HUIYAN)           
1 42758U 17034A   25324.98379715  .00006409  00000+0  33531-3 0  9992
2 42758  43.0151 260.3313 0034169 267.7293  91.9642 15.15946882466038
CZ-2C R/B               
1 43521U 18054D   25324.43680554  .00093783  00000+0  75874-3 0  9997
2 43521  35.1361 331.5586 0022674 281.2924  78.5259 15.69183023411545
SAOCOM 1A               
1 43641U 18076A   25325.00098973  .00000535  00000+0  73729-4 0  9997
2 43641  97.8852 149.7390 0001565  91.7556 268.3836 14.82142453385266
H-2A R/B                
1 43682U 18084L   25324.48983416  .00017058  00000+0  47765-3 0  9995
2 43682  98.8786 153.9772 0028919  42.1074 318.2380 15.36313209388986
SAOCOM 1B               
1 46265U 20059A   25324.96476499  .00000539  00000+0  74249-4 0  9995
2 46265  97.8847 148.8049 0001328  89.9111 270.2254 14.82151055282641
CSS (TIANHE)            
1 48274U 21035A   25324.86605360  .00019378  00000+0  24199-3 0  9991
2 48274  41.4654 149.4104 0007539 206.0978 153.9481 15.59361906260611
COSMOS 2550             
1 48865U 21056A   25325.01187725  .00000025  00000+0  65700-5 0  9992
2 48865  67.1438   9.6564 0007914 267.3833  92.6415 15.33847691246797
